{
  "norad_id": 65219,
  "name": "STARLINK-34960",
  "history": [
    {
      "epoch": "2026-04-17T21:00:47.088000Z",
      "apogee_km": 476.34516942107166,
      "perigee_km": 474.07698534138217,
      "latitude_deg": 1.2266269103138162e-05,
      "longitude_deg": 169.24839043468108,
      "height_km": 476.5591434209147,
      "semi_major_axis_km": 6853.348077381227,
      "eccentricity": 0.00016548,
      "inclination_deg": 53.1587,
      "raan_deg": 330.4472,
      "arg_perigee_deg": 113.4046,
      "mean_anomaly_deg": 246.7129,
      "mean_motion_rev_day": 15.30201337
    },
    {
      "epoch": "2026-04-18T07:59:09.389184Z",
      "apogee_km": 476.04448622186374,
      "perigee_km": 474.33910388450386,
      "latitude_deg": -5.0472698257495803e-05,
      "longitude_deg": 2.081582826620023,
      "height_km": 476.2218229434522,
      "semi_major_axis_km": 6853.328795053184,
      "eccentricity": 0.00012442,
      "inclination_deg": 53.1606,
      "raan_deg": 328.324,
      "arg_perigee_deg": 98.8935,
      "mean_anomaly_deg": 261.2206,
      "mean_motion_rev_day": 15.30207795
    },
    {
      "epoch": "2026-04-19T07:29:57.194592Z",
      "apogee_km": 476.3150842122441,
      "perigee_km": 474.1133765959639,
      "latitude_deg": 2.7917334343148288e-05,
      "longitude_deg": 3.8652955630992274,
      "height_km": 476.15898261027473,
      "semi_major_axis_km": 6853.351230404103,
      "eccentricity": 0.00016063,
      "inclination_deg": 53.1615,
      "raan_deg": 323.7725,
      "arg_perigee_deg": 92.4463,
      "mean_anomaly_deg": 267.6722,
      "mean_motion_rev_day": 15.30200281
    },
    {
      "epoch": "2026-04-20T07:00:45.454464Z",
      "apogee_km": 476.0085209619974,
      "perigee_km": 474.4632224468851,
      "latitude_deg": 1.1642621236908405e-05,
      "longitude_deg": 5.649737877265919,
      "height_km": 476.2715468154151,
      "semi_major_axis_km": 6853.3728717044405,
      "eccentricity": 0.00011274,
      "inclination_deg": 53.1582,
      "raan_deg": 319.2237,
      "arg_perigee_deg": 100.2571,
      "mean_anomaly_deg": 259.8557,
      "mean_motion_rev_day": 15.30193033
    },
    {
      "epoch": "2026-04-21T06:31:33.358368Z",
      "apogee_km": 476.2602194233705,
      "perigee_km": 474.12006242380266,
      "latitude_deg": -1.3483503527560377e-06,
      "longitude_deg": 7.432569130128707,
      "height_km": 475.99893064659324,
      "semi_major_axis_km": 6853.327140923586,
      "eccentricity": 0.00015614,
      "inclination_deg": 53.161,
      "raan_deg": 314.6718,
      "arg_perigee_deg": 85.2291,
      "mean_anomaly_deg": 274.8888,
      "mean_motion_rev_day": 15.30208349
    },
    {
      "epoch": "2026-04-22T20:08:50.137152Z",
      "apogee_km": 477.0919669471714,
      "perigee_km": 473.106124862873,
      "latitude_deg": 4.7735769176772686e-05,
      "longitude_deg": 154.28643713797925,
      "height_km": 475.8835469383366,
      "semi_major_axis_km": 6853.236045905022,
      "eccentricity": 0.0002908,
      "inclination_deg": 53.159,
      "raan_deg": 307.3906,
      "arg_perigee_deg": 86.8056,
      "mean_anomaly_deg": 273.3278,
      "mean_motion_rev_day": 15.30238859
    },
    {
      "epoch": "2026-04-22T21:42:53.216640Z",
      "apogee_km": 475.7767023643946,
      "perigee_km": 474.53625624463984,
      "latitude_deg": 5.385735136262585e-06,
      "longitude_deg": 130.40889838143354,
      "height_km": 476.214928242836,
      "semi_major_axis_km": 6853.293479304517,
      "eccentricity": 9.05e-05,
      "inclination_deg": 53.1578,
      "raan_deg": 307.0903,
      "arg_perigee_deg": 104.9569,
      "mean_anomaly_deg": 255.1532,
      "mean_motion_rev_day": 15.30219623
    }
  ]
}